start=new Date('2021-10-11T00:00:00.000Z').valueOf();
sats=[{"PERIAPSIS":"546.121","RA_OF_ASC_NODE":"152.6039","SITE":"AFETR","MEAN_MOTION_DOT":"0.00000198","SEMIMAJOR_AXIS":"6925.326","MEAN_ELEMENT_THEORY":"SGP4","BSTAR":"0.00003216100000","APOAPSIS":"548.262","NORAD_CAT_ID":"48648","TLE_LINE1":"1 48648U 21044L   21283.92688586  .00000198  00000-0  32161-4 0  9994","OBJECT_ID":"2021-044L","PERIOD":"95.592","MEAN_ANOMALY":"295.9792","GP_ID":"186842017","LAUNCH_DATE":"2021-05-26","OBJECT_NAME":"STARLINK-2521","TIME_SYSTEM":"UTC","ARG_OF_PERICENTER":"64.1357","ECCENTRICITY":"0.00015460","EPHEMERIS_TYPE":"0","EPOCH":"2021-10-10T22:14:42.938304","RCS_SIZE":"LARGE","COUNTRY_CODE":"US","INCLINATION":"53.0553","CLASSIFICATION_TYPE":"U","TLE_LINE2":"2 48648  53.0553 152.6039 0001546  64.1357 295.9792 15.06407299 20931","FILE":"3155694","DECAY_DATE":null,"REV_AT_EPOCH":"2093","REF_FRAME":"TEME","ELEMENT_SET_NO":"999","MEAN_MOTION_DDOT":"0.0000000000000","OBJECT_TYPE":"PAYLOAD","CENTER_NAME":"EARTH","MEAN_MOTION":"15.06407299"},{"SEMIMAJOR_AXIS":"6925.330","SITE":"AFETR","MEAN_MOTION_DOT":"0.00002572","RA_OF_ASC_NODE":"152.6345","PERIAPSIS":"545.929","NORAD_CAT_ID":"48649","BSTAR":"0.00019151000000","APOAPSIS":"548.462","MEAN_ELEMENT_THEORY":"SGP4","MEAN_ANOMALY":"286.1509","PERIOD":"95.592","TLE_LINE1":"1 48649U 21044M   21283.92412330  .00002572  00000-0  19151-3 0  9998","OBJECT_ID":"2021-044M","ARG_OF_PERICENTER":"73.9681","TIME_SYSTEM":"UTC","OBJECT_NAME":"STARLINK-2673","LAUNCH_DATE":"2021-05-26","GP_ID":"186841803","RCS_SIZE":"LARGE","EPOCH":"2021-10-10T22:10:44.253120","ECCENTRICITY":"0.00018290","EPHEMERIS_TYPE":"0","INCLINATION":"53.0500","CLASSIFICATION_TYPE":"U","COUNTRY_CODE":"US","REV_AT_EPOCH":"2092","FILE":"3155694","DECAY_DATE":null,"TLE_LINE2":"2 48649  53.0500 152.6345 0001829  73.9681 286.1509 15.06405953 20928","MEAN_MOTION":"15.06405953","OBJECT_TYPE":"PAYLOAD","CENTER_NAME":"EARTH","MEAN_MOTION_DDOT":"0.0000000000000","ELEMENT_SET_NO":"999","REF_FRAME":"TEME"},{"TIME_SYSTEM":"UTC","ARG_OF_PERICENTER":"62.8163","OBJECT_NAME":"STARLINK-2672","LAUNCH_DATE":"2021-05-26","GP_ID":"186842126","PERIOD":"95.593","MEAN_ANOMALY":"297.3030","TLE_LINE1":"1 48650U 21044N   21283.92045634  .00000822  00000-0  74087-4 0  9995","OBJECT_ID":"2021-044N","NORAD_CAT_ID":"48650","BSTAR":"0.00007408700000","APOAPSIS":"548.640","MEAN_ELEMENT_THEORY":"SGP4","SITE":"AFETR","SEMIMAJOR_AXIS":"6925.389","MEAN_MOTION_DOT":"0.00000822","RA_OF_ASC_NODE":"152.6344","PERIAPSIS":"545.868","MEAN_MOTION":"15.06386762","OBJECT_TYPE":"PAYLOAD","CENTER_NAME":"EARTH","ELEMENT_SET_NO":"999","MEAN_MOTION_DDOT":"0.0000000000000","REF_FRAME":"TEME","REV_AT_EPOCH":"2092","FILE":"3155694","DECAY_DATE":null,"TLE_LINE2":"2 48650  53.0547 152.6344 0002001  62.8163 297.3030 15.06386762 20924","CLASSIFICATION_TYPE":"U","INCLINATION":"53.0547","COUNTRY_CODE":"US","EPOCH":"2021-10-10T22:05:27.427776","RCS_SIZE":"LARGE","ECCENTRICITY":"0.00020010","EPHEMERIS_TYPE":"0"},{"MEAN_ELEMENT_THEORY":"SGP4","BSTAR":"0.00005352800000","APOAPSIS":"548.620","NORAD_CAT_ID":"48651","PERIAPSIS":"545.864","RA_OF_ASC_NODE":"152.6474","SITE":"AFETR","SEMIMAJOR_AXIS":"6925.377","MEAN_MOTION_DOT":"0.00000516","GP_ID":"186841570","LAUNCH_DATE":"2021-05-26","OBJECT_NAME":"STARLINK-2731","TIME_SYSTEM":"UTC","ARG_OF_PERICENTER":"72.7974","TLE_LINE1":"1 48651U 21044P   21283.91676624  .00000516  00000-0  53528-4 0  9991","OBJECT_ID":"2021-044P","MEAN_ANOMALY":"287.3233","PERIOD":"95.593","COUNTRY_CODE":"US","INCLINATION":"53.0539","CLASSIFICATION_TYPE":"U","EPHEMERIS_TYPE":"0","ECCENTRICITY":"0.00019900","EPOCH":"2021-10-10T22:00:08.603136","RCS_SIZE":"LARGE","REF_FRAME":"TEME","ELEMENT_SET_NO":"999","MEAN_MOTION_DDOT":"0.0000000000000","CENTER_NAME":"EARTH","OBJECT_TYPE":"PAYLOAD","MEAN_MOTION":"15.06390752","TLE_LINE2":"2 48651  53.0539 152.6474 0001990  72.7974 287.3233 15.06390752 20924","DECAY_DATE":null,"FILE":"3155694","REV_AT_EPOCH":"2092"},{"EPHEMERIS_TYPE":"0","ECCENTRICITY":"0.00018650","RCS_SIZE":"LARGE","EPOCH":"2021-10-10T21:54:49.929696","COUNTRY_CODE":"US","CLASSIFICATION_TYPE":"U","INCLINATION":"53.0556","TLE_LINE2":"2 48652  53.0556 152.6616 0001865  74.4652 285.6543 15.06389373 20927","REV_AT_EPOCH":"2092","DECAY_DATE":null,"FILE":"3155694","MEAN_MOTION_DDOT":"0.0000000000000","ELEMENT_SET_NO":"999","REF_FRAME":"TEME","MEAN_MOTION":"15.06389373","CENTER_NAME":"EARTH","OBJECT_TYPE":"PAYLOAD","PERIAPSIS":"545.955","SITE":"AFETR","MEAN_MOTION_DOT":"-0.00000736","SEMIMAJOR_AXIS":"6925.381","RA_OF_ASC_NODE":"152.6616","APOAPSIS":"548.538","BSTAR":"-0.00003050000000","MEAN_ELEMENT_THEORY":"SGP4","NORAD_CAT_ID":"48652","TLE_LINE1":"1 48652U 21044Q   21283.91307789 -.00000736  00000-0 -30500-4 0  9996","OBJECT_ID":"2021-044Q","PERIOD":"95.593","MEAN_ANOMALY":"285.6543","LAUNCH_DATE":"2021-05-26","GP_ID":"186841678","ARG_OF_PERICENTER":"74.4652","TIME_SYSTEM":"UTC","OBJECT_NAME":"STARLINK-2727"},{"ECCENTRICITY":"0.00020200","EPHEMERIS_TYPE":"0","RCS_SIZE":"LARGE","EPOCH":"2021-10-10T21:49:31.053216","COUNTRY_CODE":"US","INCLINATION":"53.0546","CLASSIFICATION_TYPE":"U","TLE_LINE2":"2 48653  53.0546 152.6814 0002020  67.2252 292.8950 15.06397011 20927","REV_AT_EPOCH":"2092","DECAY_DATE":null,"FILE":"3155694","MEAN_MOTION_DDOT":"0.0000000000000","ELEMENT_SET_NO":"999","REF_FRAME":"TEME","MEAN_MOTION":"15.06397011","OBJECT_TYPE":"PAYLOAD","CENTER_NAME":"EARTH","PERIAPSIS":"545.824","SITE":"AFETR","MEAN_MOTION_DOT":"0.00001043","SEMIMAJOR_AXIS":"6925.358","RA_OF_ASC_NODE":"152.6814","BSTAR":"0.00008895300000","APOAPSIS":"548.622","MEAN_ELEMENT_THEORY":"SGP4","NORAD_CAT_ID":"48653","OBJECT_ID":"2021-044R","TLE_LINE1":"1 48653U 21044R   21283.90938719  .00001043  00000-0  88953-4 0  9994","MEAN_ANOMALY":"292.8950","PERIOD":"95.592","LAUNCH_DATE":"2021-05-26","GP_ID":"186841464","ARG_OF_PERICENTER":"67.2252","TIME_SYSTEM":"UTC","OBJECT_NAME":"STARLINK-2720"},{"LAUNCH_DATE":"2021-05-26","GP_ID":"186842214","TIME_SYSTEM":"UTC","ARG_OF_PERICENTER":"72.8724","OBJECT_NAME":"STARLINK-2651","TLE_LINE1":"1 48654U 21044S   21283.90570550 -.00000851  00000-0 -38262-4 0  9996","OBJECT_ID":"2021-044S","MEAN_ANOMALY":"287.2453","PERIOD":"95.593","BSTAR":"-0.00003826200000","APOAPSIS":"548.442","MEAN_ELEMENT_THEORY":"SGP4","NORAD_CAT_ID":"48654","PERIAPSIS":"546.055","SITE":"AFETR","SEMIMAJOR_AXIS":"6925.383","MEAN_MOTION_DOT":"-0.00000851","RA_OF_ASC_NODE":"152.7083","ELEMENT_SET_NO":"999","MEAN_MOTION_DDOT":"0.0000000000000","REF_FRAME":"TEME","MEAN_MOTION":"15.06388650","CENTER_NAME":"EARTH","OBJECT_TYPE":"PAYLOAD","TLE_LINE2":"2 48654  53.0558 152.7083 0001723  72.8724 287.2453 15.06388650 20920","REV_AT_EPOCH":"2092","FILE":"3155694","DECAY_DATE":null,"COUNTRY_CODE":"US","INCLINATION":"53.0558","CLASSIFICATION_TYPE":"U","ECCENTRICITY":"0.00017230","EPHEMERIS_TYPE":"0","EPOCH":"2021-10-10T21:44:12.955200","RCS_SIZE":"LARGE"},{"NORAD_CAT_ID":"48655","MEAN_ELEMENT_THEORY":"SGP4","BSTAR":"-0.00000297480000","APOAPSIS":"548.469","RA_OF_ASC_NODE":"152.7184","SITE":"AFETR","MEAN_MOTION_DOT":"-0.00000326","SEMIMAJOR_AXIS":"6925.349","PERIAPSIS":"545.958","OBJECT_NAME":"STARLINK-2657","TIME_SYSTEM":"UTC","ARG_OF_PERICENTER":"78.0003","GP_ID":"186841911","LAUNCH_DATE":"2021-05-26","MEAN_ANOMALY":"282.1189","PERIOD":"95.592","OBJECT_ID":"2021-044T","TLE_LINE1":"1 48655U 21044T   21283.90201373 -.00000326  00000-0 -29748-5 0  9998","INCLINATION":"53.0552","CLASSIFICATION_TYPE":"U","COUNTRY_CODE":"US","EPOCH":"2021-10-10T21:38:53.986272","RCS_SIZE":"LARGE","ECCENTRICITY":"0.00018130","EPHEMERIS_TYPE":"0","OBJECT_TYPE":"PAYLOAD","CENTER_NAME":"EARTH","MEAN_MOTION":"15.06399961","REF_FRAME":"TEME","ELEMENT_SET_NO":"999","MEAN_MOTION_DDOT":"0.0000000000000","FILE":"3155694","DECAY_DATE":null,"REV_AT_EPOCH":"2092","TLE_LINE2":"2 48655  53.0552 152.7184 0001813  78.0003 282.1189 15.06399961 20922"},{"MEAN_ANOMALY":"289.9040","PERIOD":"95.593","OBJECT_ID":"2021-044U","TLE_LINE1":"1 48656U 21044U   21283.89834129  .00001331  00000-0  10829-3 0  9991","OBJECT_NAME":"STARLINK-2701","ARG_OF_PERICENTER":"70.2142","TIME_SYSTEM":"UTC","GP_ID":"186842018","LAUNCH_DATE":"2021-05-26","RA_OF_ASC_NODE":"152.7314","SEMIMAJOR_AXIS":"6925.385","SITE":"AFETR","MEAN_MOTION_DOT":"0.00001331","PERIAPSIS":"546.009","NORAD_CAT_ID":"48656","MEAN_ELEMENT_THEORY":"SGP4","BSTAR":"0.00010829000000","APOAPSIS":"548.491","FILE":"3155694","DECAY_DATE":null,"REV_AT_EPOCH":"2092","TLE_LINE2":"2 48656  53.0547 152.7314 0001792  70.2142 289.9040 15.06388162 20928","CENTER_NAME":"EARTH","OBJECT_TYPE":"PAYLOAD","MEAN_MOTION":"15.06388162","REF_FRAME":"TEME","MEAN_MOTION_DDOT":"0.0000000000000","ELEMENT_SET_NO":"999","RCS_SIZE":"LARGE","EPOCH":"2021-10-10T21:33:36.687456","EPHEMERIS_TYPE":"0","ECCENTRICITY":"0.00017920","INCLINATION":"53.0547","CLASSIFICATION_TYPE":"U","COUNTRY_CODE":"US"},{"OBJECT_NAME":"STARLINK-2734","TIME_SYSTEM":"UTC","ARG_OF_PERICENTER":"58.1135","GP_ID":"186841804","LAUNCH_DATE":"2021-05-26","MEAN_ANOMALY":"302.0049","PERIOD":"95.592","OBJECT_ID":"2021-044V","TLE_LINE1":"1 48657U 21044V   21283.89464249  .00001167  00000-0  97269-4 0  9995","NORAD_CAT_ID":"48657","MEAN_ELEMENT_THEORY":"SGP4","APOAPSIS":"548.612","BSTAR":"0.00009726900000","RA_OF_ASC_NODE":"152.7484","SITE":"AFETR","SEMIMAJOR_AXIS":"6925.352","MEAN_MOTION_DOT":"0.00001167","PERIAPSIS":"545.822","OBJECT_TYPE":"PAYLOAD","CENTER_NAME":"EARTH","MEAN_MOTION":"15.06398927","REF_FRAME":"TEME","ELEMENT_SET_NO":"999","MEAN_MOTION_DDOT":"0.0000000000000","DECAY_DATE":null,"FILE":"3155694","REV_AT_EPOCH":"2092","TLE_LINE2":"2 48657  53.0548 152.7484 0002014  58.1135 302.0049 15.06398927 20929","INCLINATION":"53.0548","CLASSIFICATION_TYPE":"U","COUNTRY_CODE":"US","EPOCH":"2021-10-10T21:28:17.111136","RCS_SIZE":"LARGE","EPHEMERIS_TYPE":"0","ECCENTRICITY":"0.00020140"}];
